ONEWEB-0412             
1 50489U 21132W   23294.40247399 -.00001756  00000+0 -44865-2 0  9992
2 50489  87.9220 168.3541 0002524  86.3297 273.8123 13.18685085 93847
ONEWEB-0413             
1 50490U 21132X   23294.40669350  .00000151  00000+0  35060-3 0  9993
2 50490  87.9269 168.3597 0002118  73.2886 286.8479 13.18686037 93780
ONEWEB-0414             
1 50491U 21132Y   23294.46887188 -.00000033  00000+0 -11660-3 0  9992
2 50491  87.9258 168.3358 0002071  84.1485 275.9883 13.18684553 93822
ONEWEB-0417             
1 50492U 21132Z   23294.17273394  .00000061  00000+0  12186-3 0  9992
2 50492  87.9206 168.4135 0001575  88.7695 271.3618 13.18685185 93762
ONEWEB-0418             
1 50493U 21132AA  23294.18644034  .00000092  00000+0  20029-3 0  9996
2 50493  87.9265 168.3920 0001668  97.4038 262.7283 13.18685708 93820
ONEWEB-0419             
1 50494U 21132AB  23294.35189427  .00000077  00000+0  16315-3 0  9992
2 50494  87.9263 168.3828 0001294  84.5144 275.6135 13.18682154 93760
ONEWEB-0420             
1 50495U 21132AC  23294.46992532 -.00000904  00000+0 -23263-2 0  9994
2 50495  87.9256 168.3682 0002551  57.3612 302.7766 13.18689293 93770
ONEWEB-0421             
1 50496U 21132AD  23294.38772055  .00000115  00000+0  25979-3 0  9991
2 50496  87.9204 168.3602 0002196  79.4634 280.6745 13.18687034 93806
